NORAD_CAT_ID,OBJECT_NAME,OBJECT_TYPE,EPOCH,MEAN_MOTION,ECCENTRICITY,INCLINATION,RA_OF_ASC_NODE,ARG_OF_PERICENTER,MEAN_ANOMALY,BSTAR,MEAN_MOTION_DOT,MEAN_MOTION_DDOT,TLE_LINE0,TLE_LINE1,TLE_LINE2,SEMIMAJOR_AXIS,PERIOD,APOGEE,PERIGEE,DECAYED
49756.0,STARLINK-3207,PAYLOAD,2024-03-26 17:53:05,15.08907143,0.0001295,53.2154,99.6499,86.9545,273.1596,0.0023999,0.00038184,0.0,0 STARLINK-3207,1 49756U 21115AJ  24086.74520515  .00038184  00000-0  23999-2 0  9998,2 49756  53.2154  99.6499 0001295  86.9545 273.1596 15.08907143128049,6917.675,95.433,540.436,538.644,0.0
49756.0,STARLINK-3207,PAYLOAD,2024-03-27 05:00:46,15.0890114,0.0001226,53.214,97.5681,99.1983,260.9148,0.00097137,0.00015231,0.0,0 STARLINK-3207,1 49756U 21115AJ  24087.20886841  .00015231  00000-0  97137-3 0  9991,2 49756  53.2140  97.5681 0001226  99.1983 260.9148 15.08901140129229,6917.694,95.434,540.407,538.71,0.0
49756.0,STARLINK-3207,PAYLOAD,2024-03-27 09:46:56,15.08845511,0.0001452,53.2144,96.6767,80.6542,279.4614,-0.00038674,-6.439e-05,0.0,0 STARLINK-3207,1 49756U 21115AJ  24087.40759404 -.00006439  00000-0 -38674-3 0  9990,2 49756  53.2144  96.6767 0001452  80.6542 279.4614 15.08845511129250,6917.864,95.437,540.733,538.724,0.0
49756.0,STARLINK-3207,PAYLOAD,2024-03-27 17:43:52,15.08825502,0.0001651,53.2145,95.1881,89.0836,271.0345,0.00090738,0.00014177,0.0,0 STARLINK-3207,1 49756U 21115AJ  24087.73879768  .00014177  00000-0  90738-3 0  9997,2 49756  53.2145  95.1881 0001651  89.0836 271.0345 15.08825502128191,6917.925,95.438,540.932,538.648,0.0
49756.0,STARLINK-3207,PAYLOAD,2024-03-28 09:37:43,15.08847889,0.0001752,53.2148,92.2141,91.6983,268.421,0.0011687,0.00018365,0.0,0 STARLINK-3207,1 49756U 21115AJ  24088.40119913  .00018365  00000-0  11687-2 0  9999,2 49756  53.2148  92.2141 0001752  91.6983 268.4210 15.08847889128299,6917.856,95.437,540.933,538.509,0.0
49756.0,STARLINK-3207,PAYLOAD,2024-03-28 17:34:39,15.08844879,0.0001785,53.2145,90.7282,89.9649,270.1548,0.00063719,9.869e-05,0.0,0 STARLINK-3207,1 49756U 21115AJ  24088.73239985  .00009869  00000-0  63719-3 0  9990,2 49756  53.2145  90.7282 0001785  89.9649 270.1548 15.08844879129459,6917.865,95.437,540.965,538.496,0.0
49756.0,STARLINK-3207,PAYLOAD,2024-03-29 04:42:21,15.08842166,0.0001905,53.2147,88.648,88.0155,272.1055,0.00034126,5.148e-05,0.0,0 STARLINK-3207,1 49756U 21115AJ  24089.19608133  .00005148  00000-0  34126-3 0  9992,2 49756  53.2147  88.6480 0001905  88.0155 272.1055 15.08842166129523,6917.874,95.437,541.057,538.421,0.0
49756.0,STARLINK-3207,PAYLOAD,2024-03-29 06:17:44,15.08843167,0.0001764,53.2142,88.3485,103.1404,256.9785,0.00036475,5.522e-05,0.0,0 STARLINK-3207,1 49756U 21115AJ  24089.26231968  .00005522  00000-0  36475-3 0  9993,2 49756  53.2142  88.3485 0001764 103.1404 256.9785 15.08843167128429,6917.871,95.437,540.956,538.515,0.0
49756.0,STARLINK-3207,PAYLOAD,2024-03-29 17:25:26,15.08843316,0.0001717,53.2139,86.2679,95.3229,264.7959,0.00027459,4.085e-05,0.0,0 STARLINK-3207,1 49756U 21115AJ  24089.72600107  .00004085  00000-0  27459-3 0  9994,2 49756  53.2139  86.2679 0001717  95.3229 264.7959 15.08843316128495,6917.87,95.437,540.923,538.547,0.0
49756.0,STARLINK-3207,PAYLOAD,2024-03-30 06:08:31,15.08841099,0.0001912,53.2167,83.8885,93.6396,266.4815,0.00013002,1.782e-05,0.0,0 STARLINK-3207,1 49756U 21115AJ  24090.25592327  .00001782  00000-0  13002-3 0  9998,2 49756  53.2167  83.8885 0001912  93.6396 266.4815 15.08841099129689,6917.877,95.437,541.065,538.419,0.0
49756.0,STARLINK-3207,PAYLOAD,2024-03-30 09:19:17,15.0884382,0.0001907,53.2166,83.294,94.0014,266.1196,0.00012398,1.686e-05,0.0,0 STARLINK-3207,1 49756U 21115AJ  24090.38840174  .00001686  00000-0  12398-3 0  9998,2 49756  53.2166  83.2940 0001907  94.0014 266.1196 15.08843820128592,6917.869,95.437,541.053,538.414,0.0
49756.0,STARLINK-3207,PAYLOAD,2024-03-31 09:10:04,15.08851344,0.0002206,53.2167,78.8297,116.0605,244.0614,0.00021296,3.104e-05,0.0,0 STARLINK-3207,1 49756U 21115AJ  24091.38199700  .00003104  00000-0  21296-3 0  9995,2 49756  53.2167  78.8297 0002206 116.0605 244.0614 15.08851344129852,6917.846,95.437,541.237,538.185,0.0
49756.0,STARLINK-3207,PAYLOAD,2024-04-01 05:50:05,15.0883962,0.0001753,53.2167,74.9674,86.3502,273.769,9.4376e-05,1.214e-05,0.0,0 STARLINK-3207,1 49756U 21115AJ  24092.24312319  .00001214  00000-0  94376-4 0  9994,2 49756  53.2167  74.9674 0001753  86.3502 273.7690 15.08839620129989,6917.882,95.438,540.959,538.534,0.0
49756.0,STARLINK-3207,PAYLOAD,2024-04-01 09:00:52,15.0884053,0.000171,53.2161,74.373,85.6826,274.4362,7.7539e-05,9.46e-06,0.0,0 STARLINK-3207,1 49756U 21115AJ  24092.37560266  .00000946  00000-0  77539-4 0  9997,2 49756  53.2161  74.3730 0001710  85.6826 274.4362 15.08840530128899,6917.879,95.438,540.927,538.561,0.0
49756.0,STARLINK-3207,PAYLOAD,2024-04-02 05:40:52,15.08840721,0.0001954,53.2157,70.5091,111.1736,248.9466,5.2691e-05,5.51e-06,0.0,0 STARLINK-3207,1 49756U 21115AJ  24093.23672273  .00000551  00000-0  52691-4 0  9999,2 49756  53.2157  70.5091 0001954 111.1736 248.9466 15.08840721129026,6917.878,95.438,541.095,538.391,0.0
49756.0,STARLINK-3207,PAYLOAD,2024-04-02 21:34:44,15.08835266,0.0001782,53.2167,67.5364,94.0696,266.05,5.7894e-05,6.33e-06,0.0,0 STARLINK-3207,1 49756U 21115AJ  24093.89912710  .00000633  00000-0  57894-4 0  9995,2 49756  53.2167  67.5364 0001782  94.0696 266.0500 15.08835266130232,6917.895,95.438,540.993,538.527,0.0
49756.0,STARLINK-3207,PAYLOAD,2024-04-03 02:20:54,15.08830972,0.000177,53.2178,66.6441,94.5887,265.5307,4.1104e-05,3.66e-06,0.0,0 STARLINK-3207,1 49756U 21115AJ  24094.09785477  .00000366  00000-0  41104-4 0  9996,2 49756  53.2178  66.6441 0001770  94.5887 265.5307 15.08830972130265,6917.908,95.438,540.997,538.549,0.0
49756.0,STARLINK-3207,PAYLOAD,2024-04-03 07:07:03,15.08832952,0.0001796,53.2183,65.7524,95.0929,265.0269,4.4547e-05,4.21e-06,0.0,0 STARLINK-3207,1 49756U 21115AJ  24094.29657401  .00000421  00000-0  44547-4 0  9999,2 49756  53.2183  65.7524 0001796  95.0929 265.0269 15.08832952129185,6917.902,95.438,541.009,538.524,0.0
49756.0,STARLINK-3207,PAYLOAD,2024-04-03 15:03:59,15.08838316,0.0001776,53.2184,64.2651,91.2304,268.8892,7.3365e-05,8.8e-06,0.0,0 STARLINK-3207,1 49756U 21115AJ  24094.62777062  .00000880  00000-0  73365-4 0  9991,2 49756  53.2184  64.2651 0001776  91.2304 268.8892 15.08838316130347,6917.886,95.438,540.979,538.522,0.0
49756.0,STARLINK-3207,PAYLOAD,2024-04-04 14:54:46,15.08838862,0.0001519,53.2165,59.803,91.1637,268.9529,4.0855e-05,3.62e-06,0.0,0 STARLINK-3207,1 49756U 21115AJ  24095.62137025  .00000362  00000-0  40855-4 0  9994,2 49756  53.2165  59.8030 0001519  91.1637 268.9529 15.08838862129386,6917.884,95.438,540.8,538.698,0.0
49756.0,STARLINK-3207,PAYLOAD,2024-04-05 03:37:51,15.08836473,0.0001514,53.2163,57.424,90.4914,269.6251,0.00012892,1.764e-05,0.0,0 STARLINK-3207,1 49756U 21115AJ  24096.15129109  .00001764  00000-0  12892-3 0  9993,2 49756  53.2163  57.4240 0001514  90.4914 269.6251 15.08836473130575,6917.891,95.438,540.804,538.709,0.0
49756.0,STARLINK-3207,PAYLOAD,2024-04-05 14:45:33,15.0884231,0.0001453,53.2169,55.3426,97.6114,262.5043,8.2969e-05,1.033e-05,0.0,0 STARLINK-3207,1 49756U 21115AJ  24096.61496765  .00001033  00000-0  82969-4 0  9991,2 49756  53.2169  55.3426 0001453  97.6114 262.5043 15.08842310129539,6917.873,95.437,540.743,538.733,0.0
49756.0,STARLINK-3207,PAYLOAD,2024-04-06 03:28:37,15.08847395,0.0001585,53.2173,52.9634,94.9775,265.1398,8.9554e-05,1.138e-05,0.0,0 STARLINK-3207,1 49756U 21115AJ  24097.14488346  .00001138  00000-0  89554-4 0  9999,2 49756  53.2173  52.9634 0001585  94.9775 265.1398 15.08847395130720,6917.858,95.437,540.819,538.626,0.0
49756.0,STARLINK-3207,PAYLOAD,2024-04-06 14:36:19,15.08846507,0.0001539,53.218,50.881,98.1129,262.0038,3.3548e-05,2.46e-06,0.0,0 STARLINK-3207,1 49756U 21115AJ  24097.60856367  .00000246  00000-0  33548-4 0  9993,2 49756  53.2180  50.8810 0001539  98.1129 262.0038 15.08846507129683,6917.86,95.437,540.79,538.661,0.0
49756.0,STARLINK-3207,PAYLOAD,2024-04-07 06:30:11,15.08841931,0.0001643,53.2187,47.9067,101.8021,258.3156,3.6987e-05,3.01e-06,0.0,0 STARLINK-3207,1 49756U 21115AJ  24098.27096659  .00000301  00000-0  36987-4 0  9999,2 49756  53.2187  47.9067 0001643 101.8021 258.3156 15.08841931129786,6917.874,95.437,540.876,538.603,0.0
49756.0,STARLINK-3207,PAYLOAD,2024-04-08 12:42:31,15.08839075,0.0001509,53.2188,42.258,96.8742,263.2422,2.6165e-05,1.28e-06,0.0,0 STARLINK-3207,1 49756U 21115AJ  24099.52953108  .00000128  00000-0  26165-4 0  9993,2 49756  53.2188  42.2580 0001509  96.8742 263.2422 15.08839075131082,6917.883,95.438,540.792,538.704,0.0
49756.0,STARLINK-3207,PAYLOAD,2024-04-08 23:50:13,15.08838135,0.0001427,53.2187,40.1773,97.0758,263.0396,7.4813e-05,9.03e-06,0.0,0 STARLINK-3207,1 49756U 21115AJ  24099.99321114  .00000903  00000-0  74813-4 0  9994,2 49756  53.2187  40.1773 0001427  97.0758 263.0396 15.08838135130040,6917.886,95.438,540.738,538.764,0.0
49756.0,STARLINK-3207,PAYLOAD,2024-04-09 12:33:18,15.08842955,0.0001319,53.2182,37.7993,96.0246,264.0896,4.5654e-05,4.39e-06,0.0,0 STARLINK-3207,1 49756U 21115AJ  24100.52312956  .00000439  00000-0  45654-4 0  9995,2 49756  53.2182  37.7993 0001319  96.0246 264.0896 15.08842955130122,6917.871,95.437,540.649,538.824,0.0
49756.0,STARLINK-3207,PAYLOAD,2024-04-10 04:27:10,15.08838527,0.0001378,53.2191,34.8269,91.822,268.293,7.787e-05,9.52e-06,0.0,0 STARLINK-3207,1 49756U 21115AJ  24101.18553431  .00000952  00000-0  77870-4 0  9998,2 49756  53.2191  34.8269 0001378  91.8220 268.2930 15.08838527131335,6917.885,95.438,540.703,538.797,0.0
49756.0,STARLINK-3207,PAYLOAD,2024-04-10 12:24:06,15.08835008,0.0001367,53.2191,33.3401,93.7256,266.3893,4.6634e-05,4.54e-06,0.0,0 STARLINK-3207,1 49756U 21115AJ  24101.51673799  .00000454  00000-0  46634-4 0  9996,2 49756  53.2191  33.3401 0001367  93.7256 266.3893 15.08835008130275,6917.896,95.438,540.706,538.815,0.0
